[{"OBJECT_NAME":"STARLINK-5691","OBJECT_ID":"2023-015AF","EPOCH":"2025-08-26T21:07:26.369184","MEAN_MOTION":15.02532658,"ECCENTRICITY":0.00012971,"INCLINATION":43.0034,"RA_OF_ASC_NODE":292.0323,"ARG_OF_PERICENTER":266.0296,"MEAN_ANOMALY":94.0398,"EPHEMERIS_TYPE":0,"CLASSIFICATION_TYPE":"U","NORAD_CAT_ID":55478,"ELEMENT_SET_NO":999,"REV_AT_EPOCH":14159,"BSTAR":-1.806639e-6,"MEAN_MOTION_DOT":-2.28e-6,"MEAN_MOTION_DDOT":0},{"OBJECT_NAME":"STARLINK-5688","OBJECT_ID":"2023-015AG","EPOCH":"2025-08-26T14:58:55.172352","MEAN_MOTION":15.02540426,"ECCENTRICITY":0.00012149,"INCLINATION":43.0032,"RA_OF_ASC_NODE":293.5545,"ARG_OF_PERICENTER":266.6844,"MEAN_ANOMALY":93.3859,"EPHEMERIS_TYPE":0,"CLASSIFICATION_TYPE":"U","NORAD_CAT_ID":55479,"ELEMENT_SET_NO":999,"REV_AT_EPOCH":14155,"BSTAR":-3.3040448e-5,"MEAN_MOTION_DOT":-6.5e-6,"MEAN_MOTION_DDOT":0},{"OBJECT_NAME":"STARLINK-5690","OBJECT_ID":"2023-015AH","EPOCH":"2025-08-26T21:51:15.464160","MEAN_MOTION":15.0253834,"ECCENTRICITY":0.00013905,"INCLINATION":43.0036,"RA_OF_ASC_NODE":317.3164,"ARG_OF_PERICENTER":264.2961,"MEAN_ANOMALY":95.7723,"EPHEMERIS_TYPE":0,"CLASSIFICATION_TYPE":"U","NORAD_CAT_ID":55480,"ELEMENT_SET_NO":999,"REV_AT_EPOCH":14130,"BSTAR":4.6157995e-5,"MEAN_MOTION_DOT":4.2e-6,"MEAN_MOTION_DDOT":0},{"OBJECT_NAME":"STARLINK-5694","OBJECT_ID":"2023-015AJ","EPOCH":"2025-08-26T12:29:41.463456","MEAN_MOTION":15.02537943,"ECCENTRICITY":0.00011368,"INCLINATION":43.0041,"RA_OF_ASC_NODE":319.6371,"ARG_OF_PERICENTER":278.7637,"MEAN_ANOMALY":81.3076,"EPHEMERIS_TYPE":0,"CLASSIFICATION_TYPE":"U","NORAD_CAT_ID":55481,"ELEMENT_SET_NO":999,"REV_AT_EPOCH":14124,"BSTAR":4.2729185e-5,"MEAN_MOTION_DOT":3.74e-6,"MEAN_MOTION_DDOT":0},{"OBJECT_NAME":"STARLINK-5692","OBJECT_ID":"2023-015AL","EPOCH":"2025-08-26T21:49:40.577088","MEAN_MOTION":15.02536829,"ECCENTRICITY":0.00014243,"INCLINATION":43.0039,"RA_OF_ASC_NODE":317.3927,"ARG_OF_PERICENTER":265.1276,"MEAN_ANOMALY":94.9404,"EPHEMERIS_TYPE":0,"CLASSIFICATION_TYPE":"U","NORAD_CAT_ID":55483,"ELEMENT_SET_NO":999,"REV_AT_EPOCH":14130,"BSTAR":2.8087111e-5,"MEAN_MOTION_DOT":1.76e-6,"MEAN_MOTION_DDOT":0},{"OBJECT_NAME":"STARLINK-5696","OBJECT_ID":"2023-015AM","EPOCH":"2025-08-26T13:38:15.307008","MEAN_MOTION":15.02533851,"ECCENTRICITY":0.00011892,"INCLINATION":43.003,"RA_OF_ASC_NODE":319.1352,"ARG_OF_PERICENTER":284.5025,"MEAN_ANOMALY":75.5686,"EPHEMERIS_TYPE":0,"CLASSIFICATION_TYPE":"U","NORAD_CAT_ID":55484,"ELEMENT_SET_NO":999,"REV_AT_EPOCH":14125,"BSTAR":-7.508003e-6,"MEAN_MOTION_DOT":-3.05e-6,"MEAN_MOTION_DDOT":0},{"OBJECT_NAME":"STARLINK-5695","OBJECT_ID":"2023-015AN","EPOCH":"2025-08-26T21:59:15.953568","MEAN_MOTION":15.02532951,"ECCENTRICITY":0.00014285,"INCLINATION":43.0034,"RA_OF_ASC_NODE":317.4436,"ARG_OF_PERICENTER":276.1795,"MEAN_ANOMALY":83.8885,"EPHEMERIS_TYPE":0,"CLASSIFICATION_TYPE":"U","NORAD_CAT_ID":55485,"ELEMENT_SET_NO":999,"REV_AT_EPOCH":14130,"BSTAR":0.00015149689,"MEAN_MOTION_DOT":1.843e-5,"MEAN_MOTION_DDOT":0},{"OBJECT_NAME":"STARLINK-5704","OBJECT_ID":"2023-015AP","EPOCH":"2025-08-26T21:40:04.522368","MEAN_MOTION":15.02537715,"ECCENTRICITY":0.00014118,"INCLINATION":43.004,"RA_OF_ASC_NODE":317.298,"ARG_OF_PERICENTER":265.9503,"MEAN_ANOMALY":94.1178,"EPHEMERIS_TYPE":0,"CLASSIFICATION_TYPE":"U","NORAD_CAT_ID":55486,"ELEMENT_SET_NO":999,"REV_AT_EPOCH":14130,"BSTAR":6.3586521e-5,"MEAN_MOTION_DOT":6.55e-6,"MEAN_MOTION_DDOT":0},{"OBJECT_NAME":"STARLINK-5701","OBJECT_ID":"2023-015AQ","EPOCH":"2025-08-26T22:00:51.829920","MEAN_MOTION":15.02533085,"ECCENTRICITY":0.00011333,"INCLINATION":43.0029,"RA_OF_ASC_NODE":317.4501,"ARG_OF_PERICENTER":268.7747,"MEAN_ANOMALY":91.2965,"EPHEMERIS_TYPE":0,"CLASSIFICATION_TYPE":"U","NORAD_CAT_ID":55487,"ELEMENT_SET_NO":999,"REV_AT_EPOCH":14130,"BSTAR":9.6491951e-5,"MEAN_MOTION_DOT":1.1e-5,"MEAN_MOTION_DDOT":0},{"OBJECT_NAME":"STARLINK-5706","OBJECT_ID":"2023-015AR","EPOCH":"2025-08-26T13:27:03.537504","MEAN_MOTION":15.02523172,"ECCENTRICITY":0.00019375,"INCLINATION":43.0065,"RA_OF_ASC_NODE":319.0698,"ARG_OF_PERICENTER":268.2489,"MEAN_ANOMALY":91.8132,"EPHEMERIS_TYPE":0,"CLASSIFICATION_TYPE":"U","NORAD_CAT_ID":55488,"ELEMENT_SET_NO":999,"REV_AT_EPOCH":14125,"BSTAR":2.865976e-5,"MEAN_MOTION_DOT":1.83e-6,"MEAN_MOTION_DDOT":0},{"OBJECT_NAME":"STARLINK-5371","OBJECT_ID":"2023-015AS","EPOCH":"2025-08-26T21:44:50.605728","MEAN_MOTION":15.0256096,"ECCENTRICITY":0.00013231,"INCLINATION":43.0046,"RA_OF_ASC_NODE":317.3684,"ARG_OF_PERICENTER":267.2711,"MEAN_ANOMALY":92.798,"EPHEMERIS_TYPE":0,"CLASSIFICATION_TYPE":"U","NORAD_CAT_ID":55489,"ELEMENT_SET_NO":999,"REV_AT_EPOCH":14130,"BSTAR":0.0002590527,"MEAN_MOTION_DOT":3.3e-5,"MEAN_MOTION_DDOT":0},{"OBJECT_NAME":"STARLINK-5373","OBJECT_ID":"2023-015AT","EPOCH":"2025-08-26T21:41:41.235072","MEAN_MOTION":15.0254042,"ECCENTRICITY":0.00013124,"INCLINATION":43.0044,"RA_OF_ASC_NODE":317.343,"ARG_OF_PERICENTER":284.2346,"MEAN_ANOMALY":75.835,"EPHEMERIS_TYPE":0,"CLASSIFICATION_TYPE":"U","NORAD_CAT_ID":55490,"ELEMENT_SET_NO":999,"REV_AT_EPOCH":14130,"BSTAR":-0.00018769426,"MEAN_MOTION_DOT":-2.738e-5,"MEAN_MOTION_DDOT":0},{"OBJECT_NAME":"STARLINK-5364","OBJECT_ID":"2023-015AU","EPOCH":"2025-08-26T11:48:52.659360","MEAN_MOTION":15.0254546,"ECCENTRICITY":0.00010057,"INCLINATION":43.0031,"RA_OF_ASC_NODE":293.4157,"ARG_OF_PERICENTER":284.9714,"MEAN_ANOMALY":75.1017,"EPHEMERIS_TYPE":0,"CLASSIFICATION_TYPE":"U","NORAD_CAT_ID":55491,"ELEMENT_SET_NO":999,"REV_AT_EPOCH":14154,"BSTAR":-1.8226289e-5,"MEAN_MOTION_DOT":-4.5e-6,"MEAN_MOTION_DDOT":0},{"OBJECT_NAME":"STARLINK-5013","OBJECT_ID":"2023-015AV","EPOCH":"2025-08-26T13:31:51.420576","MEAN_MOTION":15.02535704,"ECCENTRICITY":0.0001179,"INCLINATION":43.004,"RA_OF_ASC_NODE":319.0947,"ARG_OF_PERICENTER":272.2464,"MEAN_ANOMALY":87.8243,"EPHEMERIS_TYPE":0,"CLASSIFICATION_TYPE":"U","NORAD_CAT_ID":55492,"ELEMENT_SET_NO":999,"REV_AT_EPOCH":14125,"BSTAR":3.0097551e-5,"MEAN_MOTION_DOT":2.03e-6,"MEAN_MOTION_DDOT":0},{"OBJECT_NAME":"STARLINK-5362","OBJECT_ID":"2023-015AW","EPOCH":"2025-08-26T13:36:39.082464","MEAN_MOTION":15.02538327,"ECCENTRICITY":0.00011937,"INCLINATION":43.0037,"RA_OF_ASC_NODE":319.1193,"ARG_OF_PERICENTER":275.4009,"MEAN_ANOMALY":84.6697,"EPHEMERIS_TYPE":0,"CLASSIFICATION_TYPE":"U","NORAD_CAT_ID":55493,"ELEMENT_SET_NO":999,"REV_AT_EPOCH":14125,"BSTAR":4.2152571e-5,"MEAN_MOTION_DOT":3.66e-6,"MEAN_MOTION_DDOT":0},{"OBJECT_NAME":"STARLINK-5344","OBJECT_ID":"2023-015AX","EPOCH":"2025-08-25T22:52:43.430016","MEAN_MOTION":15.02536749,"ECCENTRICITY":0.000109,"INCLINATION":43.004,"RA_OF_ASC_NODE":322.2515,"ARG_OF_PERICENTER":281.2318,"MEAN_ANOMALY":78.8402,"EPHEMERIS_TYPE":0,"CLASSIFICATION_TYPE":"U","NORAD_CAT_ID":55494,"ELEMENT_SET_NO":999,"REV_AT_EPOCH":14116,"BSTAR":4.8104253e-5,"MEAN_MOTION_DOT":4.46e-6,"MEAN_MOTION_DDOT":0}]
