STARLINK-5691           
1 55478U 23015AF  25238.88016631 -.00000228  00000+0 -18066-5 0  9992
2 55478  43.0034 292.0323 0001297 266.0296  94.0398 15.02532658141596
STARLINK-5688           
1 55479U 23015AG  25238.62424968 -.00000650  00000+0 -33040-4 0  9998
2 55479  43.0032 293.5545 0001214 266.6844  93.3859 15.02540426141553
STARLINK-5690           
1 55480U 23015AH  25238.91059565  .00000420  00000+0  46158-4 0  9996
2 55480  43.0036 317.3164 0001390 264.2961  95.7723 15.02538340141301
STARLINK-5694           
1 55481U 23015AJ  25238.52061879  .00000374  00000+0  42729-4 0  9993
2 55481  43.0041 319.6371 0001136 278.7637  81.3076 15.02537943141244
STARLINK-5692           
1 55483U 23015AL  25238.90949742  .00000176  00000+0  28087-4 0  9992
2 55483  43.0039 317.3927 0001424 265.1276  94.9404 15.02536829141308
STARLINK-5696           
1 55484U 23015AM  25238.56823272 -.00000305  00000+0 -75080-5 0  9996
2 55484  43.0030 319.1352 0001189 284.5025  75.5686 15.02533851141250
STARLINK-5695           
1 55485U 23015AN  25238.91615687  .00001843  00000+0  15150-3 0  9991
2 55485  43.0034 317.4436 0001428 276.1795  83.8885 15.02532951141305
STARLINK-5704           
1 55486U 23015AP  25238.90283012  .00000655  00000+0  63587-4 0  9992
2 55486  43.0040 317.2980 0001411 265.9503  94.1178 15.02537715141303
STARLINK-5701           
1 55487U 23015AQ  25238.91726655  .00001100  00000+0  96492-4 0  9996
2 55487  43.0029 317.4501 0001133 268.7747  91.2965 15.02533085141302
STARLINK-5706           
1 55488U 23015AR  25238.56045761  .00000183  00000+0  28660-4 0  9992
2 55488  43.0065 319.0698 0001937 268.2489  91.8132 15.02523172141250
STARLINK-5371           
1 55489U 23015AS  25238.90614127  .00003300  00000+0  25905-3 0  9991
2 55489  43.0046 317.3684 0001323 267.2711  92.7980 15.02560960141305
STARLINK-5373           
1 55490U 23015AT  25238.90394948 -.00002738  00000+0 -18769-3 0  9995
2 55490  43.0044 317.3430 0001312 284.2346  75.8350 15.02540420141307
STARLINK-5364           
1 55491U 23015AU  25238.49227615 -.00000450  00000+0 -18226-4 0  9994
2 55491  43.0031 293.4157 0001005 284.9714  75.1017 15.02545460141547
STARLINK-5013           
1 55492U 23015AV  25238.56378959  .00000203  00000+0  30098-4 0  9996
2 55492  43.0040 319.0947 0001179 272.2464  87.8243 15.02535704141253
STARLINK-5362           
1 55493U 23015AW  25238.56711901  .00000366  00000+0  42153-4 0  9990
2 55493  43.0037 319.1193 0001193 275.4009  84.6697 15.02538327141252
STARLINK-5344           
1 55494U 23015AX  25237.95328044  .00000446  00000+0  48104-4 0  9996
2 55494  43.0040 322.2515 0001090 281.2318  78.8402 15.02536749141169
